[{"OBJECT_NAME":"STARLINK-32810","OBJECT_ID":"2025-034J","EPOCH":"2026-03-09T19:32:14.394336","MEAN_MOTION":15.30198249,"ECCENTRICITY":8.403e-5,"INCLINATION":53.158,"RA_OF_ASC_NODE":257.7044,"ARG_OF_PERICENTER":97.7827,"MEAN_ANOMALY":262.3269,"EPHEMERIS_TYPE":0,"CLASSIFICATION_TYPE":"U","NORAD_CAT_ID":63037,"ELEMENT_SET_NO":999,"REV_AT_EPOCH":5910,"BSTAR":0.001064822,"MEAN_MOTION_DOT":0.00031309,"MEAN_MOTION_DDOT":0},{"OBJECT_NAME":"COSMOS 1975","OBJECT_ID":"1988-093A","EPOCH":"2026-03-09T14:15:08.474112","MEAN_MOTION":15.28069249,"ECCENTRICITY":0.0012117,"INCLINATION":82.5181,"RA_OF_ASC_NODE":117.7814,"ARG_OF_PERICENTER":163.8427,"MEAN_ANOMALY":196.3201,"EPHEMERIS_TYPE":0,"CLASSIFICATION_TYPE":"U","NORAD_CAT_ID":19573,"ELEMENT_SET_NO":999,"REV_AT_EPOCH":1939,"BSTAR":0.0002787,"MEAN_MOTION_DOT":7.676e-5,"MEAN_MOTION_DDOT":0}]
